STARLINK-4042           
1 52661U 22053F   22313.11869953 -.00000718  00000+0 -26974-4 0  9994
2 52661  53.2165 215.5120 0002244  38.5450 321.5702 15.08833643 27388
STARLINK-4044           
1 52662U 22053G   22313.44254076  .00011809  00000+0  75912-3 0  9991
2 52662  53.2165 214.0810 0002466  50.2239 309.8970 15.08825699 27435
STARLINK-4037           
1 52663U 22053H   22313.43885888 -.00005560  00000+0 -33153-3 0  9992
2 52663  53.2163 214.0898 0002784  27.5296 332.5843 15.08833295 27436
STARLINK-4070           
1 52664U 22053J   22313.44620433  .00000186  00000+0  29847-4 0  9990
2 52664  53.2191 214.0570 0003057  38.9648 321.1564 15.08848992 27430
STARLINK-4064           
1 52665U 22053K   22313.09661990 -.00003544  00000+0 -20474-3 0  9994
2 52665  53.2162 215.6292 0002050  32.6805 327.4314 15.08829717 27385
STARLINK-4079           
1 52666U 22053L   22313.10395817  .00005644  00000+0  37202-3 0  9997
2 52666  53.2151 215.5945 0002100  39.2363 320.8781 15.08878371 27381
STARLINK-4076           
1 52667U 22053M   22313.22540170 -.00011483  00000+0 -70422-3 0  9996
2 52667  53.2159 215.0506 0001539  59.1942 300.9202 15.08854947 27400
STARLINK-4067           
1 52668U 22053N   22313.43149813 -.00001850  00000+0 -98104-4 0  9994
2 52668  53.2178 214.1265 0002635  37.4536 322.6639 15.08845593 27435
STARLINK-3972           
1 52669U 22053P   22313.21435188  .00008210  00000+0  53273-3 0  9996
2 52669  53.2174 215.1034 0002552  35.2831 324.8330 15.08880926 27395
STARLINK-4075           
1 52670U 22053Q   22312.70012039  .00012976  00000+0  83101-3 0  9994
2 52670  53.2167 217.4072 0002361  31.6290 328.4843 15.08876563 27327
STARLINK-4071           
1 52671U 22053R   22313.14443153  .00010090  00000+0  65029-3 0  9993
2 52671  53.2162 215.4114 0002088  46.3813 313.7352 15.08888495 26955
STARLINK-4073           
1 52672U 22053S   22312.75805754  .00000945  00000+0  77460-4 0  9990
2 52672  53.2168 217.1486 0002286  36.9733 323.1417 15.08850880 27325
STARLINK-3976           
1 52673U 22053T   22313.13707541  .00007359  00000+0  47936-3 0  9999
2 52673  53.2174 215.4358 0002250  41.2292 318.8870 15.08889340 26957
STARLINK-3936           
1 52674U 22053U   22312.68813128  .00013536  00000+0  86614-3 0  9998
2 52674  53.2154 217.4614 0002167  39.0612 321.0536 15.08872903 27325
STARLINK-3934           
1 52675U 22053V   22312.86936180  .00008595  00000+0  55693-3 0  9995
2 52675  53.2155 206.6315 0001938  39.8045 320.3089 15.08874654 27474
STARLINK-4006           
1 52676U 22053W   22313.14077560 -.00002395  00000+0 -13239-3 0  9990
2 52676  53.2173 215.4249 0002225  46.0997 314.0179 15.08844597 26950
STARLINK-4028           
1 52677U 22053X   22313.12695623  .00009303  00000+0  60114-3 0  9993
2 52677  53.2161 205.4789 0002479  40.3662 319.7514 15.08882031 27088
STARLINK-4074           
1 52678U 22053Y   22313.40023592  .00002307  00000+0  16292-3 0  9990
2 52678  53.2157 204.2511 0002450  38.1612 321.9553 15.08855476 27129
STARLINK-4031           
1 52679U 22053Z   22313.11593118  .00001623  00000+0  12006-3 0  9994
2 52679  53.2169 205.5324 0001735  45.2538 314.8595 15.08835205 27080
STARLINK-3774           
1 52680U 22053AA  22313.06441649 -.00000142  00000+0  91536-5 0  9994
2 52680  53.2149 205.7575 0001870  41.8533 318.2602 15.08837518 27072
STARLINK-4068           
1 52681U 22053AB  22312.44986092  .00002544  00000+0  17787-3 0  9993
2 52681  53.2152 208.5127 0002140  34.2150 325.8980 15.08838626 27370
STARLINK-4017           
1 52682U 22053AC  22313.12332134 -.00001125  00000+0 -52617-4 0  9990
2 52682  53.2156 205.4890 0002249  35.7920 324.3223 15.08819434 27087
STARLINK-4039           
1 52683U 22053AD  22313.43608071  .00002076  00000+0  14846-3 0  9996
2 52683  53.2173 204.0874 0002299  50.5830 309.5365 15.08847685 27131
STARLINK-4014           
1 52684U 22053AE  22313.11959535  .00011304  00000+0  72613-3 0  9996
2 52684  53.2168 205.5109 0002242  34.2901 325.8236 15.08893632 27084
STARLINK-4029           
1 52685U 22053AF  22312.70007798  .00004000  00000+0  26916-3 0  9996
2 52685  53.2180 207.3920 0002260  33.2495 326.8639 15.08860128 27393
STARLINK-4005           
1 52686U 22053AG  22313.10857287 -.00000037  00000+0  15749-4 0  9998
2 52686  53.2165 205.5627 0001961  39.4945 320.6190 15.08852684 27084
STARLINK-3981           
1 52687U 22053AH  22313.42504076  .00000356  00000+0  40448-4 0  9996
2 52687  53.2173 204.1473 0002674  34.3046 325.8118 15.08859575 27135
STARLINK-4032           
1 52688U 22053AJ  22313.10215673  .00013677  00000+0  87456-3 0  9993
2 52688  53.2167 205.5873 0002300  38.8951 321.2207 15.08890605 27080
STARLINK-4078           
1 52689U 22053AK  22313.41400509  .00002008  00000+0  14419-3 0  9997
2 52689  53.2181 204.2005 0002795  39.4681 320.6514 15.08848170 27135
STARLINK-4035           
1 52690U 22053AL  22312.70376046  .00004079  00000+0  27407-3 0  9999
2 52690  53.2185 207.3830 0002026  52.3746 307.7430 15.08863399 27395
STARLINK-3945           
1 52691U 22053AM  22313.07911328 -.00000840  00000+0 -34700-4 0  9998
2 52691  53.2185 205.6984 0001564  65.1612 294.9542 15.08815231 27086
STARLINK-3993           
1 52692U 22053AN  22313.42135549  .00010345  00000+0  66645-3 0  9992
2 52692  53.2175 204.1586 0002334  43.0344 317.0830 15.08877984 27137
STARLINK-3946           
1 52693U 22053AP  22312.93928165  .00006959  00000+0  45437-3 0  9994
2 52693  53.2176 206.3301 0002102  38.3851 321.7290 15.08880586 27067
STARLINK-4072           
1 52694U 22053AQ  22313.08649043  .00000658  00000+0  59448-4 0  9995
2 52694  53.2186 205.6600 0001752  35.3479 324.7629 15.08835332 27086
STARLINK-4041           
1 52695U 22053AR  22312.74658357  .00009929  00000+0  64040-3 0  9999
2 52695  53.2184 212.1947 0001712  55.7301 304.3853 15.08876625 27373
STARLINK-4025           
1 52696U 22053AS  22313.40663900  .00001568  00000+0  11652-3 0  9996
2 52696  53.2198 204.2212 0002953  40.8156 319.3057 15.08874115 27135
STARLINK-4018           
1 52697U 22053AT  22313.41632969  .00000994  00000+0  80512-4 0  9993
2 52697  53.2189 209.1845 0002872  29.5566 330.5588 15.08867310 27066
STARLINK-4030           
1 52698U 22053AU  22313.09616612  .00002652  00000+0  18450-3 0  9999
2 52698  53.2185 210.6193 0002189  34.2713 325.8420 15.08873820 27014
STARLINK-3987           
1 52699U 22053AV  22312.80638936  .00007201  00000+0  46979-3 0  9993
2 52699  53.2160 201.9140 0002200  36.1378 323.9763 15.08864401 27536
STARLINK-4034           
1 52700U 22053AW  22312.69137915  .00007929  00000+0  51526-3 0  9995
2 52700  53.2177 212.4305 0002143  41.7994 318.3161 15.08870972 27360
STARLINK-4003           
1 52701U 22053AX  22313.38547896 -.00003762  00000+0 -21823-3 0  9996
2 52701  53.2167 194.3299 0002197  43.1745 316.9419 15.08865557 27261
STARLINK-4033           
1 52702U 22053AY  22313.14768884  .00009122  00000+0  58970-3 0  9990
2 52702  53.2187 210.3950 0002016  52.6341 307.4834 15.08888037 27022
STARLINK-4020           
1 52703U 22053AZ  22313.37444904 -.00002011  00000+0 -10826-3 0  9990
2 52703  53.2154 194.3777 0001728 351.8885   8.2079 15.08840064 27262
STARLINK-3999           
1 52704U 22053BA  22312.39557361  .00010156  00000+0  65499-3 0  9997
2 52704  53.2173 198.7741 0002408  35.6617 324.4535 15.08857069 27116
STARLINK-3844           
1 52705U 22053BB  22313.04692541  .00004357  00000+0  29153-3 0  9994
2 52705  53.2172 195.8510 0002435  28.7376 331.3750 15.08863279 27210
STARLINK-3970           
1 52706U 22053BC  22313.38181299 -.00007733  00000+0 -46825-3 0  9993
2 52706  53.2171 194.3439 0002723  23.3800 336.7315 15.08838738 27260
STARLINK-4007           
1 52707U 22053BD  22313.10676549 -.00001290  00000+0 -62950-4 0  9991
2 52707  53.2165 195.5792 0002722  32.1782 327.9376 15.08841506 27227
STARLINK-3962           
1 52708U 22053BE  22312.80869467  .00023319  00000+0  14771-2 0  9991
2 52708  53.2165 196.9078 0002445  30.5727 329.5408 15.08872161 27813
COSMOS 2556             
1 52713U 22054A   22313.10940051  .00005731  00000+0  27012-3 0  9992
2 52713  97.5487 228.5841 0007408 168.8572 303.6188 15.19873775 26309
2022-056A               
1 52716U 22056A   22313.23173260  .00000390  00000+0  23680-3 0  9994
2 52716  86.0057 244.0126 0021161 125.8302 234.4864 14.03544232 24241
2022-056B               
1 52717U 22056B   22312.83877057 -.00000602  00000+0 -13234-2 0  9996
2 52717  86.0057 249.8549 0045855  24.4144 335.9171 13.29526751 23394
2022-056C               
1 52718U 22056C   22313.16473861  .00000472  00000+0  28931-3 0  9993
2 52718  86.0055 244.0483 0017127 118.1141 242.1790 14.03537196 24234
LEMUR-2-TENNYSONLILY    
1 52732U 22057A   22312.24877580  .00017482  00000+0  94243-3 0  9992
2 52732  97.5350  65.0104 0009247  55.7342 304.4764 15.14809161 25173
LEMUR-2-VANDENDRIES     
1 52733U 22057B   22312.28798687  .00009134  00000+0  49913-3 0  9996
2 52733  97.5231  64.8792 0008343  52.1722 308.0264 15.14493864 25186
PTD-3 (TYVAK-0125)      
1 52734U 22057C   22313.09908948  .00028451  00000+0  14657-2 0  9999
2 52734  97.5294  65.9452 0008138  45.1361 315.0531 15.16321128 25319
OP15 FLT2 (TYVAK-0821)  
1 52735U 22057D   22312.31878245  .00012429  00000+0  68403-3 0  9997
2 52735  97.5280  64.9299 0009324  50.1176 310.0874 15.14151491 25183
LEMUR-2-KAREN B         
1 52736U 22057E   22312.27659192  .00018052  00000+0  96294-3 0  9998
2 52736  97.5216  64.8483 0007555  44.5090 315.6747 15.15190973 25182
GHGSAT-C3               
1 52737U 22057F   22313.06001836  .00004364  00000+0  25310-3 0  9995
2 52737  97.5295  65.5599 0009637  44.3641  59.8883 15.12647523 25283
PLANETUM1               
1 52738U 22057G   22312.26571233  .00010563  00000+0  58918-3 0  9998
2 52738  97.5253  64.7911 0008602  42.2031 317.9861 15.13718907 25176
CONNECTA T1.1           
1 52739U 22057H   22312.29818476  .00006124  00000+0  35073-3 0  9990
2 52739  97.5342  64.9326 0010351  46.2766 313.9320 15.12936444 25174
